{
  "type": "FeatureCollection",
  "features": [
    {
      "type": "Feature",
      "properties": {
        "norad_id": 33844,
        "name": "COSMOS 2251 DEB",
        "group": "cosmos-2251-debris",
        "lat": 74.00117065072321,
        "lon": 124.54765888154975,
        "alt_km": 747.3624914068114,
        "timestamp": "2025-12-25T09:48:52.681992+00:00",
        "meta_object_name": "COSMOS 2251 DEB",
        "meta_object_id": "1993-036CM",
        "meta_epoch": "2025-12-25T04:40:13.141056",
        "meta_mean_motion": 14.33740407,
        "meta_eccentricity": 0.0047209,
        "meta_inclination": 74.0664,
        "meta_ra_of_asc_node": 30.0399,
        "meta_arg_of_pericenter": 48.0004,
        "meta_mean_anomaly": 17.075,
        "meta_ephemeris_type": 0,
        "meta_classification_type": "U",
        "meta_norad_cat_id": 33844,
        "meta_element_set_no": 999,
        "meta_rev_at_epoch": 87904,
        "meta_bstar": 0.00034935,
        "meta_mean_motion_dot": 9.57e-06,
        "meta_mean_motion_ddot": 0,
        "tle_line1": "1 33844U 93036CM  25359.19459654  .00000957  00000+0  34935-3 0  9997",
        "tle_line2": "2 33844  74.0664  30.0399 0047209  48.0004  17.0750 14.33740407879044"
      },
      "geometry": {
        "type": "Point",
        "coordinates": [
          124.54765888154975,
          74.00117065072321
        ]
      }
    },
    {
      "type": "Feature",
      "properties": {
        "norad_id": 33848,
        "name": "COSMOS 2251 DEB",
        "group": "cosmos-2251-debris",
        "lat": 21.96513375977349,
        "lon": -19.300269526438957,
        "alt_km": 714.3934249987497,
        "timestamp": "2025-12-25T09:48:52.682002+00:00",
        "meta_object_name": "COSMOS 2251 DEB",
        "meta_object_id": "1993-036CR",
        "meta_epoch": "2025-12-25T01:45:01.749888",
        "meta_mean_motion": 14.44146368,
        "meta_eccentricity": 0.0041925,
        "meta_inclination": 74.0325,
        "meta_ra_of_asc_node": 334.6935,
        "meta_arg_of_pericenter": 26.9702,
        "meta_mean_anomaly": 49.8909,
        "meta_ephemeris_type": 0,
        "meta_classification_type": "U",
        "meta_norad_cat_id": 33848,
        "meta_element_set_no": 999,
        "meta_rev_at_epoch": 88009,
        "meta_bstar": 0.0012493,
        "meta_mean_motion_dot": 4.305e-05,
        "meta_mean_motion_ddot": 0,
        "tle_line1": "1 33848U 93036CR  25359.07293692  .00004305  00000+0  12493-2 0  9991",
        "tle_line2": "2 33848  74.0325 334.6935 0041925  26.9702  49.8909 14.44146368880094"
      },
      "geometry": {
        "type": "Point",
        "coordinates": [
          -19.300269526438957,
          21.96513375977349
        ]
      }
    },
    {
      "type": "Feature",
      "properties": {
        "norad_id": 33892,
        "name": "COSMOS 2251 DEB",
        "group": "cosmos-2251-debris",
        "lat": 71.9694230474583,
        "lon": 142.19358661274893,
        "alt_km": 733.7714855824897,
        "timestamp": "2025-12-25T09:48:52.682012+00:00",
        "meta_object_name": "COSMOS 2251 DEB",
        "meta_object_id": "1993-036CV",
        "meta_epoch": "2025-12-24T06:42:31.028256",
        "meta_mean_motion": 14.23374829,
        "meta_eccentricity": 0.0112196,
        "meta_inclination": 73.8024,
        "meta_ra_of_asc_node": 81.0058,
        "meta_arg_of_pericenter": 109.9731,
        "meta_mean_anomaly": 307.537,
        "meta_ephemeris_type": 0,
        "meta_classification_type": "U",
        "meta_norad_cat_id": 33892,
        "meta_element_set_no": 999,
        "meta_rev_at_epoch": 87119,
        "meta_bstar": 0.0006029331,
        "meta_mean_motion_dot": 1.433e-05,
        "meta_mean_motion_ddot": 0,
        "tle_line1": "1 33892U 93036CV  25358.27952579  .00001433  00000+0  60293-3 0  9998",
        "tle_line2": "2 33892  73.8024  81.0058 0112196 109.9731 307.5370 14.23374829871197"
      },
      "geometry": {
        "type": "Point",
        "coordinates": [
          142.19358661274893,
          71.9694230474583
        ]
      }
    },
    {
      "type": "Feature",
      "properties": {
        "norad_id": 33894,
        "name": "COSMOS 2251 DEB",
        "group": "cosmos-2251-debris",
        "lat": 26.731659281957445,
        "lon": -22.088142552625236,
        "alt_km": 1506.6299041681023,
        "timestamp": "2025-12-25T09:48:52.682022+00:00",
        "meta_object_name": "COSMOS 2251 DEB",
        "meta_object_id": "1993-036CX",
        "meta_epoch": "2025-12-24T15:29:38.328864",
        "meta_mean_motion": 13.21326885,
        "meta_eccentricity": 0.05787082,
        "meta_inclination": 73.7663,
        "meta_ra_of_asc_node": 330.6551,
        "meta_arg_of_pericenter": 248.5012,
        "meta_mean_anomaly": 105.345,
        "meta_ephemeris_type": 0,
        "meta_classification_type": "U",
        "meta_norad_cat_id": 33894,
        "meta_element_set_no": 999,
        "meta_rev_at_epoch": 80865,
        "meta_bstar": 0.00057502684,
        "meta_mean_motion_dot": 5.48e-06,
        "meta_mean_motion_ddot": 0,
        "tle_line1": "1 33894U 93036CX  25358.64558251  .00000548  00000+0  57503-3 0  9996",
        "tle_line2": "2 33894  73.7663 330.6551 0578708 248.5012 105.3450 13.21326885808655"
      },
      "geometry": {
        "type": "Point",
        "coordinates": [
          -22.088142552625236,
          26.731659281957445
        ]
      }
    },
    {
      "type": "Feature",
      "properties": {
        "norad_id": 33896,
        "name": "COSMOS 2251 DEB",
        "group": "cosmos-2251-debris",
        "lat": -42.20066076457354,
        "lon": 118.36390279947338,
        "alt_km": 744.0186261752906,
        "timestamp": "2025-12-25T09:48:52.682032+00:00",
        "meta_object_name": "COSMOS 2251 DEB",
        "meta_object_id": "1993-036CZ",
        "meta_epoch": "2025-12-25T02:07:16.153824",
        "meta_mean_motion": 14.19066991,
        "meta_eccentricity": 0.0127172,
        "meta_inclination": 73.7665,
        "meta_ra_of_asc_node": 134.2641,
        "meta_arg_of_pericenter": 307.9709,
        "meta_mean_anomaly": 170.5079,
        "meta_ephemeris_type": 0,
        "meta_classification_type": "U",
        "meta_norad_cat_id": 33896,
        "meta_element_set_no": 999,
        "meta_rev_at_epoch": 86915,
        "meta_bstar": 0.00063165,
        "meta_mean_motion_dot": 1.403e-05,
        "meta_mean_motion_ddot": 0,
        "tle_line1": "1 33896U 93036CZ  25359.08838141  .00001403  00000+0  63165-3 0  9998",
        "tle_line2": "2 33896  73.7665 134.2641 0127172 307.9709 170.5079 14.19066991869155"
      },
      "geometry": {
        "type": "Point",
        "coordinates": [
          118.36390279947338,
          -42.20066076457354
        ]
      }
    },
    {
      "type": "Feature",
      "properties": {
        "norad_id": 33899,
        "name": "COSMOS 2251 DEB",
        "group": "cosmos-2251-debris",
        "lat": 72.70129798513464,
        "lon": 174.87861136587412,
        "alt_km": 645.4081552661492,
        "timestamp": "2025-12-25T09:48:52.682042+00:00",
        "meta_object_name": "COSMOS 2251 DEB",
        "meta_object_id": "1993-036DC",
        "meta_epoch": "2025-12-25T04:34:52.061376",
        "meta_mean_motion": 14.61291008,
        "meta_eccentricity": 0.005597,
        "meta_inclination": 74.0532,
        "meta_ra_of_asc_node": 61.9432,
        "meta_arg_of_pericenter": 120.9342,
        "meta_mean_anomaly": 269.4,
        "meta_ephemeris_type": 0,
        "meta_classification_type": "U",
        "meta_norad_cat_id": 33899,
        "meta_element_set_no": 999,
        "meta_rev_at_epoch": 89021,
        "meta_bstar": 0.00082402,
        "meta_mean_motion_dot": 4.131e-05,
        "meta_mean_motion_ddot": 0,
        "tle_line1": "1 33899U 93036DC  25359.19088034  .00004131  00000+0  82402-3 0  9997",
        "tle_line2": "2 33899  74.0532  61.9432 0055970 120.9342 269.4000 14.61291008890210"
      },
      "geometry": {
        "type": "Point",
        "coordinates": [
          174.87861136587412,
          72.70129798513464
        ]
      }
    },
    {
      "type": "Feature",
      "properties": {
        "norad_id": 33900,
        "name": "COSMOS 2251 DEB",
        "group": "cosmos-2251-debris",
        "lat": 0.9064793856471871,
        "lon": -24.016894194242624,
        "alt_km": 718.6616989688227,
        "timestamp": "2025-12-25T09:48:52.682052+00:00",
        "meta_object_name": "COSMOS 2251 DEB",
        "meta_object_id": "1993-036DD",
        "meta_epoch": "2025-12-25T01:54:47.915136",
        "meta_mean_motion": 14.58389969,
        "meta_eccentricity": 0.0046338,
        "meta_inclination": 74.0196,
        "meta_ra_of_asc_node": 336.3503,
        "meta_arg_of_pericenter": 124.7997,
        "meta_mean_anomaly": 308.9316,
        "meta_ephemeris_type": 0,
        "meta_classification_type": "U",
        "meta_norad_cat_id": 33900,
        "meta_element_set_no": 999,
        "meta_rev_at_epoch": 89216,
        "meta_bstar": 0.00044872,
        "meta_mean_motion_dot": 2.081e-05,
        "meta_mean_motion_ddot": 0,
        "tle_line1": "1 33900U 93036DD  25359.07972124  .00002081  00000+0  44872-3 0  9990",
        "tle_line2": "2 33900  74.0196 336.3503 0046338 124.7997 308.9316 14.58389969892168"
      },
      "geometry": {
        "type": "Point",
        "coordinates": [
          -24.016894194242624,
          0.9064793856471871
        ]
      }
    }
  ]
}